ONEWEB-0416             
1 51625U 22012D   25358.23897378 -.00000586  00000+0 -17140-2 0  9991
2 51625  87.8797  71.1660 0001377 115.4300 244.6970 13.10373036186419
ONEWEB-0422             
1 51626U 22012E   25358.11860758  .00000050  00000+0  95949-4 0  9990
2 51626  87.9111  40.6550 0002146  80.1656 279.9718 13.17649789190758
ONEWEB-0423             
1 51627U 22012F   25358.18779290  .00000027  00000+0  35089-4 0  9991
2 51627  87.9108  40.6513 0001986  96.1694 263.9664 13.17649269190659
ONEWEB-0425             
1 51628U 22012G   25358.24893588 -.00000293  00000+0 -87619-3 0  9998
2 51628  87.8808  71.1364 0002010 111.8209 248.3132 13.10376905186418
ONEWEB-0428             
1 51629U 22012H   25358.15266281 -.00000495  00000+0 -14558-2 0  9998
2 51629  87.8795  71.1731 0001762 102.3718 257.7607 13.10370898186365
ONEWEB-0431             
1 51630U 22012J   25358.19901559  .00000749  00000+0  21103-2 0  9992
2 51630  87.8805  71.1445 0001183  86.4751 273.6512 13.10373162186423
ONEWEB-0434             
1 51631U 22012K   25358.25239935 -.00000014  00000+0 -76772-4 0  9993
2 51631  87.8796  71.1686 0002300 115.5047 244.6318 13.10375220186412
ONEWEB-0435             
1 51632U 22012L   25358.26056415  .00000261  00000+0  71164-3 0  9996
2 51632  87.8807  71.1577 0001911  91.4220 268.7126 13.10376926186404
ONEWEB-0436             
1 51633U 22012M   25358.17935427 -.00000005  00000+0 -45598-4 0  9997
2 51633  87.9108  40.6316 0001792  92.0126 268.1211 13.17648795190633
ONEWEB-0438             
1 51634U 22012N   25358.16759935 -.00000430  00000+0 -12684-2 0  9995
2 51634  87.8800  71.1771 0001818 109.3250 250.8074 13.10374251186428
ONEWEB-0439             
1 51635U 22012P   25358.17091244 -.00000391  00000+0 -11564-2 0  9991
2 51635  87.8807  71.1651 0001796 102.1168 258.0161 13.10376569186406
ONEWEB-0442             
1 51636U 22012Q   25358.17175022  .00000052  00000+0  10081-3 0  9995
2 51636  87.9099  40.6794 0001922 116.7546 243.3782 13.17647333190624
ONEWEB-0443             
1 51637U 22012R   25358.19116540  .00000008  00000+0 -12507-4 0  9996
2 51637  87.9093  40.6798 0002157 100.5008 259.6367 13.17648734190678
ONEWEB-0444             
1 51638U 22012S   25358.23731652 -.00000479  00000+0 -14087-2 0  9995
2 51638  87.8798  71.1507 0001776 101.8455 258.2872 13.10372120186423
ONEWEB-0445             
1 51639U 22012T   25358.25887758  .00000153  00000+0  40275-3 0  9993
2 51639  87.8822  71.1152 0001620 110.0814 250.0488 13.10373425186430
ONEWEB-0446             
1 51640U 22012U   25358.15930987  .00000043  00000+0  86227-4 0  9993
2 51640  87.8807  71.1815 0001420 114.4006 245.7270 13.10371909186402
ONEWEB-0448             
1 51641U 22012V   25358.24063500 -.00000604  00000+0 -17653-2 0  9992
2 51641  87.8796  71.1656 0001756 102.9204 257.2120 13.10375319186385
