[{"OBJECT_NAME":"ONEWEB-0416","OBJECT_ID":"2022-012D","EPOCH":"2025-12-24T05:44:07.334592","MEAN_MOTION":13.10373036,"ECCENTRICITY":0.00013771,"INCLINATION":87.8797,"RA_OF_ASC_NODE":71.166,"ARG_OF_PERICENTER":115.43,"MEAN_ANOMALY":244.697,"EPHEMERIS_TYPE":0,"CLASSIFICATION_TYPE":"U","NORAD_CAT_ID":51625,"ELEMENT_SET_NO":999,"REV_AT_EPOCH":18641,"BSTAR":-0.0017140463,"MEAN_MOTION_DOT":-5.86e-6,"MEAN_MOTION_DDOT":0},{"OBJECT_NAME":"ONEWEB-0422","OBJECT_ID":"2022-012E","EPOCH":"2025-12-24T02:50:47.694912","MEAN_MOTION":13.17649789,"ECCENTRICITY":0.00021465,"INCLINATION":87.9111,"RA_OF_ASC_NODE":40.655,"ARG_OF_PERICENTER":80.1656,"MEAN_ANOMALY":279.9718,"EPHEMERIS_TYPE":0,"CLASSIFICATION_TYPE":"U","NORAD_CAT_ID":51626,"ELEMENT_SET_NO":999,"REV_AT_EPOCH":19075,"BSTAR":9.5948755e-5,"MEAN_MOTION_DOT":5.0e-7,"MEAN_MOTION_DDOT":0},{"OBJECT_NAME":"ONEWEB-0423","OBJECT_ID":"2022-012F","EPOCH":"2025-12-24T04:30:25.306560","MEAN_MOTION":13.17649269,"ECCENTRICITY":0.00019862,"INCLINATION":87.9108,"RA_OF_ASC_NODE":40.6513,"ARG_OF_PERICENTER":96.1694,"MEAN_ANOMALY":263.9664,"EPHEMERIS_TYPE":0,"CLASSIFICATION_TYPE":"U","NORAD_CAT_ID":51627,"ELEMENT_SET_NO":999,"REV_AT_EPOCH":19065,"BSTAR":3.5089106e-5,"MEAN_MOTION_DOT":2.7e-7,"MEAN_MOTION_DDOT":0},{"OBJECT_NAME":"ONEWEB-0425","OBJECT_ID":"2022-012G","EPOCH":"2025-12-24T05:58:28.060032","MEAN_MOTION":13.10376905,"ECCENTRICITY":0.00020106,"INCLINATION":87.8808,"RA_OF_ASC_NODE":71.1364,"ARG_OF_PERICENTER":111.8209,"MEAN_ANOMALY":248.3132,"EPHEMERIS_TYPE":0,"CLASSIFICATION_TYPE":"U","NORAD_CAT_ID":51628,"ELEMENT_SET_NO":999,"REV_AT_EPOCH":18641,"BSTAR":-0.00087619354,"MEAN_MOTION_DOT":-2.93e-6,"MEAN_MOTION_DDOT":0},{"OBJECT_NAME":"ONEWEB-0428","OBJECT_ID":"2022-012H","EPOCH":"2025-12-24T03:39:50.066784","MEAN_MOTION":13.10370898,"ECCENTRICITY":0.00017623,"INCLINATION":87.8795,"RA_OF_ASC_NODE":71.1731,"ARG_OF_PERICENTER":102.3718,"MEAN_ANOMALY":257.7607,"EPHEMERIS_TYPE":0,"CLASSIFICATION_TYPE":"U","NORAD_CAT_ID":51629,"ELEMENT_SET_NO":999,"REV_AT_EPOCH":18636,"BSTAR":-0.0014557803,"MEAN_MOTION_DOT":-4.95e-6,"MEAN_MOTION_DDOT":0},{"OBJECT_NAME":"ONEWEB-0431","OBJECT_ID":"2022-012J","EPOCH":"2025-12-24T04:46:34.946976","MEAN_MOTION":13.10373162,"ECCENTRICITY":0.00011833,"INCLINATION":87.8805,"RA_OF_ASC_NODE":71.1445,"ARG_OF_PERICENTER":86.4751,"MEAN_ANOMALY":273.6512,"EPHEMERIS_TYPE":0,"CLASSIFICATION_TYPE":"U","NORAD_CAT_ID":51630,"ELEMENT_SET_NO":999,"REV_AT_EPOCH":18642,"BSTAR":0.0021102925,"MEAN_MOTION_DOT":7.49e-6,"MEAN_MOTION_DDOT":0},{"OBJECT_NAME":"ONEWEB-0434","OBJECT_ID":"2022-012K","EPOCH":"2025-12-24T06:03:27.303840","MEAN_MOTION":13.1037522,"ECCENTRICITY":0.00023001,"INCLINATION":87.8796,"RA_OF_ASC_NODE":71.1686,"ARG_OF_PERICENTER":115.5047,"MEAN_ANOMALY":244.6318,"EPHEMERIS_TYPE":0,"CLASSIFICATION_TYPE":"U","NORAD_CAT_ID":51631,"ELEMENT_SET_NO":999,"REV_AT_EPOCH":18641,"BSTAR":-7.6771898e-5,"MEAN_MOTION_DOT":-1.4e-7,"MEAN_MOTION_DDOT":0},{"OBJECT_NAME":"ONEWEB-0435","OBJECT_ID":"2022-012L","EPOCH":"2025-12-24T06:15:12.742560","MEAN_MOTION":13.10376926,"ECCENTRICITY":0.00019114,"INCLINATION":87.8807,"RA_OF_ASC_NODE":71.1577,"ARG_OF_PERICENTER":91.422,"MEAN_ANOMALY":268.7126,"EPHEMERIS_TYPE":0,"CLASSIFICATION_TYPE":"U","NORAD_CAT_ID":51632,"ELEMENT_SET_NO":999,"REV_AT_EPOCH":18640,"BSTAR":0.00071164201,"MEAN_MOTION_DOT":2.61e-6,"MEAN_MOTION_DDOT":0},{"OBJECT_NAME":"ONEWEB-0436","OBJECT_ID":"2022-012M","EPOCH":"2025-12-24T04:18:16.208928","MEAN_MOTION":13.17648795,"ECCENTRICITY":0.00017925,"INCLINATION":87.9108,"RA_OF_ASC_NODE":40.6316,"ARG_OF_PERICENTER":92.0126,"MEAN_ANOMALY":268.1211,"EPHEMERIS_TYPE":0,"CLASSIFICATION_TYPE":"U","NORAD_CAT_ID":51633,"ELEMENT_SET_NO":999,"REV_AT_EPOCH":19063,"BSTAR":-4.5597633e-5,"MEAN_MOTION_DOT":-5.0e-8,"MEAN_MOTION_DDOT":0},{"OBJECT_NAME":"ONEWEB-0438","OBJECT_ID":"2022-012N","EPOCH":"2025-12-24T04:01:20.583840","MEAN_MOTION":13.10374251,"ECCENTRICITY":0.00018181,"INCLINATION":87.88,"RA_OF_ASC_NODE":71.1771,"ARG_OF_PERICENTER":109.325,"MEAN_ANOMALY":250.8074,"EPHEMERIS_TYPE":0,"CLASSIFICATION_TYPE":"U","NORAD_CAT_ID":51634,"ELEMENT_SET_NO":999,"REV_AT_EPOCH":18642,"BSTAR":-0.0012684488,"MEAN_MOTION_DOT":-4.3e-6,"MEAN_MOTION_DDOT":0},{"OBJECT_NAME":"ONEWEB-0439","OBJECT_ID":"2022-012P","EPOCH":"2025-12-24T04:06:06.834816","MEAN_MOTION":13.10376569,"ECCENTRICITY":0.00017963,"INCLINATION":87.8807,"RA_OF_ASC_NODE":71.1651,"ARG_OF_PERICENTER":102.1168,"MEAN_ANOMALY":258.0161,"EPHEMERIS_TYPE":0,"CLASSIFICATION_TYPE":"U","NORAD_CAT_ID":51635,"ELEMENT_SET_NO":999,"REV_AT_EPOCH":18640,"BSTAR":-0.0011564402,"MEAN_MOTION_DOT":-3.91e-6,"MEAN_MOTION_DDOT":0},{"OBJECT_NAME":"ONEWEB-0442","OBJECT_ID":"2022-012Q","EPOCH":"2025-12-24T04:07:19.219008","MEAN_MOTION":13.17647333,"ECCENTRICITY":0.00019221,"INCLINATION":87.9099,"RA_OF_ASC_NODE":40.6794,"ARG_OF_PERICENTER":116.7546,"MEAN_ANOMALY":243.3782,"EPHEMERIS_TYPE":0,"CLASSIFICATION_TYPE":"U","NORAD_CAT_ID":51636,"ELEMENT_SET_NO":999,"REV_AT_EPOCH":19062,"BSTAR":0.0001008122,"MEAN_MOTION_DOT":5.2e-7,"MEAN_MOTION_DDOT":0},{"OBJECT_NAME":"ONEWEB-0443","OBJECT_ID":"2022-012R","EPOCH":"2025-12-24T04:35:16.690560","MEAN_MOTION":13.17648734,"ECCENTRICITY":0.00021578,"INCLINATION":87.9093,"RA_OF_ASC_NODE":40.6798,"ARG_OF_PERICENTER":100.5008,"MEAN_ANOMALY":259.6367,"EPHEMERIS_TYPE":0,"CLASSIFICATION_TYPE":"U","NORAD_CAT_ID":51637,"ELEMENT_SET_NO":999,"REV_AT_EPOCH":19067,"BSTAR":-1.2506896e-5,"MEAN_MOTION_DOT":8.0e-8,"MEAN_MOTION_DDOT":0},{"OBJECT_NAME":"ONEWEB-0444","OBJECT_ID":"2022-012S","EPOCH":"2025-12-24T05:41:44.147328","MEAN_MOTION":13.1037212,"ECCENTRICITY":0.00017761,"INCLINATION":87.8798,"RA_OF_ASC_NODE":71.1507,"ARG_OF_PERICENTER":101.8455,"MEAN_ANOMALY":258.2872,"EPHEMERIS_TYPE":0,"CLASSIFICATION_TYPE":"U","NORAD_CAT_ID":51638,"ELEMENT_SET_NO":999,"REV_AT_EPOCH":18642,"BSTAR":-0.0014086883,"MEAN_MOTION_DOT":-4.79e-6,"MEAN_MOTION_DDOT":0},{"OBJECT_NAME":"ONEWEB-0445","OBJECT_ID":"2022-012T","EPOCH":"2025-12-24T06:12:47.022912","MEAN_MOTION":13.10373425,"ECCENTRICITY":0.00016205,"INCLINATION":87.8822,"RA_OF_ASC_NODE":71.1152,"ARG_OF_PERICENTER":110.0814,"MEAN_ANOMALY":250.0488,"EPHEMERIS_TYPE":0,"CLASSIFICATION_TYPE":"U","NORAD_CAT_ID":51639,"ELEMENT_SET_NO":999,"REV_AT_EPOCH":18643,"BSTAR":0.0004027456,"MEAN_MOTION_DOT":1.53e-6,"MEAN_MOTION_DDOT":0},{"OBJECT_NAME":"ONEWEB-0446","OBJECT_ID":"2022-012U","EPOCH":"2025-12-24T03:49:24.372768","MEAN_MOTION":13.10371909,"ECCENTRICITY":0.00014205,"INCLINATION":87.8807,"RA_OF_ASC_NODE":71.1815,"ARG_OF_PERICENTER":114.4006,"MEAN_ANOMALY":245.727,"EPHEMERIS_TYPE":0,"CLASSIFICATION_TYPE":"U","NORAD_CAT_ID":51640,"ELEMENT_SET_NO":999,"REV_AT_EPOCH":18640,"BSTAR":8.6227086e-5,"MEAN_MOTION_DOT":4.3e-7,"MEAN_MOTION_DDOT":0},{"OBJECT_NAME":"ONEWEB-0448","OBJECT_ID":"2022-012V","EPOCH":"2025-12-24T05:46:30.864000","MEAN_MOTION":13.10375319,"ECCENTRICITY":0.00017564,"INCLINATION":87.8796,"RA_OF_ASC_NODE":71.1656,"ARG_OF_PERICENTER":102.9204,"MEAN_ANOMALY":257.212,"EPHEMERIS_TYPE":0,"CLASSIFICATION_TYPE":"U","NORAD_CAT_ID":51641,"ELEMENT_SET_NO":999,"REV_AT_EPOCH":18638,"BSTAR":-0.001765323,"MEAN_MOTION_DOT":-6.04e-6,"MEAN_MOTION_DDOT":0}]
